STARLINK-3629           
1 51774U 22017G   23339.70745637  .00011401  00000+0  73279-3 0  9992
2 51774  53.2172  82.6121 0001551  58.8384 301.2760 15.08862989 99524
STARLINK-3620           
1 51775U 22017H   23339.51980206  .00012117  00000+0  77782-3 0  9993
2 51775  53.2176  83.4522 0001504 115.6928 244.4220 15.08851448 99489
STARLINK-3608           
1 51776U 22017J   23339.70378633  .00005557  00000+0  36692-3 0  9995
2 51776  53.2193  82.6254 0001668  91.9629 268.1554 15.08846278 98024
STARLINK-3625           
1 51777U 22017K   23339.70842708  .00006428  00000+0  42159-3 0  9998
2 51777  53.2178  82.5753 0001519  72.0304 288.0854 15.08840830 98051
STARLINK-3615           
1 51778U 22017L   23339.64582048  .00009869  00000+0  63680-3 0  9994
2 51778  53.2171  72.7636 0001565 123.3942 236.7200 15.08866736 98008
STARLINK-3611           
1 51779U 22017M   23339.50604662  .00008915  00000+0  57740-3 0  9998
2 51779  53.2177  83.5671 0001779  54.9648 305.1511 15.08846528 97993
STARLINK-3617           
1 51780U 22017N   23339.68906993  .00009447  00000+0  61077-3 0  9990
2 51780  53.2172  82.6807 0001497  66.8659 293.2490 15.08846006 97873
STARLINK-3580           
1 51781U 22017P   23339.56026797  .00007259  00000+0  47364-3 0  9995
2 51781  53.2196  83.2329 0001660  85.7853 274.3329 15.08843946 97853
STARLINK-3616           
1 51782U 22017Q   23339.71486101  .00001275  00000+0  98163-4 0  9998
2 51782  53.2166  92.5877 0001199  93.6140 266.4990 15.08850337 97641
STARLINK-3628           
1 51783U 22017R   23339.69739684  .00017726  00000+0  11277-2 0  9990
2 51783  53.2159  82.7022 0001724 105.2699 254.8483 15.08883758 97876
STARLINK-3632           
1 51784U 22017S   23339.71022914  .00008440  00000+0  54760-3 0  9993
2 51784  53.2168  92.5950 0001557 130.9879 229.1248 15.08848000 97735
STARLINK-3646           
1 51785U 22017T   23339.55386938  .00001038  00000+0  83294-4 0  9996
2 51785  53.2179  83.2700 0001561  65.4936 294.6218 15.08849530 97855
STARLINK-3638           
1 51786U 22017U   23339.70287594  .00010693  00000+0  68851-3 0  9990
2 51786  53.2160  92.6294 0001129 115.2501 244.8608 15.08860317 97733
STARLINK-3619           
1 51787U 22017V   23339.51887530  .00006187  00000+0  40652-3 0  9998
2 51787  53.2163  93.4566 0001337 129.6203 230.4908 15.08833803 97708
STARLINK-3641           
1 51788U 22017W   23339.55935875  .00005026  00000+0  33368-3 0  9996
2 51788  53.2175  93.2739 0001012 125.8241 234.2845 15.08831845 99351
STARLINK-3639           
1 51789U 22017X   23339.70655325  .00008399  00000+0  54510-3 0  9991
2 51789  53.2164  92.6137 0001210 108.8764 251.2359 15.08845434 97734
STARLINK-3631           
1 51790U 22017Y   23339.75438871  .00008899  00000+0  57630-3 0  9994
2 51790  53.2179  92.3982 0001312 105.6149 254.4988 15.08852293 99435
STARLINK-3602           
1 51791U 22017Z   23339.76543056  .00021768  00000+0  13796-2 0  9992
2 51791  53.2154  92.3489 0001212  77.4495 282.6632 15.08892293 99387
STARLINK-3626           
1 51792U 22017AA  23339.54831524  .00005872  00000+0  38680-3 0  9997
2 51792  53.2188  93.3341 0001619  85.0067 275.1110 15.08833192 99408
STARLINK-3633           
1 51793U 22017AB  23339.56303693  .00007508  00000+0  48925-3 0  9992
2 51793  53.2179  93.2598 0001329  92.0479 268.0665 15.08844644 99405
STARLINK-3573           
1 51794U 22017AC  23339.73966486  .00000919  00000+0  75798-4 0  9995
2 51794  53.2182  92.4623 0001143  85.0926 275.0197 15.08839752 99382
STARLINK-3586           
1 51795U 22017AD  23339.55296267  .00005615  00000+0  37058-3 0  9993
2 51795  53.2177  93.3924 0001196 112.3125 247.7994 15.08840861 99355
STARLINK-3630           
1 51796U 22017AE  23339.72865097  .00037677  00000+0  23735-2 0  9995
2 51796  53.2165  92.5214 0001255  99.3154 260.7980 15.08829258 99377
STARLINK-3627           
1 51797U 22017AF  23339.71110347  .00018933  00000+0  76929-3 0  9994
2 51797  53.1591  64.1465 0003081  46.2802 313.8451 15.24610038 99828
STARLINK-3634           
1 51798U 22017AG  23339.72495887  .00018387  00000+0  11693-2 0  9990
2 51798  53.2158  92.5347 0001538  71.0994 289.0164 15.08873244 99429
STARLINK-3637           
1 51799U 22017AH  23339.73597245 -.00007720  00000+0 -46711-3 0  9994
2 51799  53.2183  92.4765 0001553 124.4443 235.6697 15.08869467 99385
STARLINK-3600           
1 51800U 22017AJ  23337.63134406  .00561529  15733-3  87414-3 0  9998
2 51800  53.2008  35.5246 0009161  21.5980 120.1509 16.03457358100024
STARLINK-3592           
1 51801U 22017AK  23339.73232485  .00009418  00000+0  60884-3 0  9991
2 51801  53.2168  92.5009 0001169  93.5545 266.5581 15.08850278 99381
STARLINK-3557           
1 51802U 22017AL  23339.55198924  .00002952  00000+0  20349-3 0  9999
2 51802  53.2186  93.3012 0001393  76.6522 283.4625 15.08833849 99350
STARLINK-3544           
1 51803U 22017AM  23339.52256295  .00025550  00000+0  16158-2 0  9994
2 51803  53.2156  93.4415 0001621  59.7822 300.3331 15.08880736 99344
STARLINK-3601           
1 51804U 22017AN  23339.53543984  .00007140  00000+0  46634-3 0  9998
2 51804  53.2164  73.3833 0001250  88.3995 271.7141 15.08832157 99582
STARLINK-3605           
1 51805U 22017AP  23339.53912465  .00003219  00000+0  22017-3 0  9995
2 51805  53.2184  73.4409 0001423  92.4737 267.6418 15.08848081 99671
STARLINK-3581           
1 51806U 22017AQ  23339.54556209  .00010805  00000+0  69574-3 0  9995
2 51806  53.2156  83.3369 0001267 107.5012 252.6119 15.08848884 99499
STARLINK-3606           
1 51807U 22017AR  23339.55291297  .00004585  00000+0  30582-3 0  9995
2 51807  53.2168  83.3047 0001499  75.6771 284.4387 15.08856036 99544
STARLINK-3609           
1 51808U 22017AS  23339.73690713  .00006374  00000+0  41811-3 0  9997
2 51808  53.2189  82.4756 0001628  98.2602 261.8574 15.08849663 99425
STARLINK-3607           
1 51809U 22017AT  23339.68266944  .00008851  00000+0  57340-3 0  9993
2 51809  53.2192  82.7263 0001290 101.0638 259.0500 15.08845021 99515
STARLINK-3613           
1 51810U 22017AU  23339.64953959  .00020377  00000+0  12933-2 0  9995
2 51810  53.2163  73.0923 0001265  83.6406 276.4731 15.08879737 99522
STARLINK-3569           
1 51811U 22017AV  23339.54187859  .00005627  00000+0  37137-3 0  9998
2 51811  53.2172  83.3528 0001303 111.2834 248.8297 15.08836882 99393
STARLINK-3610           
1 51812U 22017AW  23339.55015145  .00011116  00000+0  71521-3 0  9993
2 51812  53.2174  73.3177 0001492  76.9040 283.2119 15.08848807 99633
STARLINK-3552           
1 51813U 22017AX  23339.66423189  .00003406  00000+0  23188-3 0  9996
2 51813  53.2180  72.8276 0001101  91.9683 268.1435 15.08855411 99533
STARLINK-3599           
1 51814U 22017AY  23339.54279092  .00008504  00000+0  55164-3 0  9999
2 51814  53.2186  73.3453 0001413 115.7731 244.3407 15.08845770 99518
STARLINK-3604           
1 51815U 22017AZ  23339.54648364  .00012776  00000+0  81912-3 0  9998
2 51815  53.2186  73.3384 0001512 106.1061 254.0098 15.08850071 99516
STARLINK-3603           
1 51816U 22017BA  23339.69465122  .00009153  00000+0  59230-3 0  9997
2 51816  53.2186  72.9085 0001674  60.2585 299.8574 15.08849280 99583
STARLINK-3542           
1 51852U 22022A   23339.56763255  .00002690  00000+0  18707-3 0  9990
2 51852  53.2169 123.2333 0001232  95.5795 264.5338 15.08836736 97198
STARLINK-3539           
1 51853U 22022B   23339.53446615  .00002854  00000+0  19731-3 0  9996
2 51853  53.2159 123.0010 0001122  87.2900 272.8221 15.08838861 98399
STARLINK-3541           
1 51854U 22022C   23339.56395330  .00002318  00000+0  16371-3 0  9999
2 51854  53.2170 123.2558 0001222  79.1180 280.9950 15.08838409 98457
STARLINK-3545           
1 51855U 22022D   23339.54922298  .00002729  00000+0  18946-3 0  9993
2 51855  53.2176 123.2417 0001351  93.6539 266.4608 15.08841629 98402
STARLINK-3568           
1 51856U 22022E   23339.56123201  .00003250  00000+0  22225-3 0  9998
2 51856  53.2170 123.2772 0001532  89.5013 270.6154 15.08835217 98480
STARLINK-3571           
1 51857U 22022F   23339.55018895  .00000046  00000+0  20982-4 0  9999
2 51857  53.2166 123.3261 0001342  69.4023 290.7113 15.08839329 98450
STARLINK-3563           
1 51858U 22022G   23339.81787012 -.00001135  00000+0 -53192-4 0  9994
2 51858  53.2147 122.1114 0001710  90.0973 270.0215 15.08842035 98493
STARLINK-3560           
1 51859U 22022H   23339.76823675  .00005069  00000+0  33633-3 0  9990
2 51859  53.2176 112.3495 0001499  83.3623 276.7539 15.08838532 98624
STARLINK-3559           
1 51860U 22022J   23339.77463943  .00004972  00000+0  33022-3 0  9995
2 51860  53.2167 112.3107 0001364  92.6862 267.4286 15.08843066 98584
STARLINK-3562           
1 51861U 22022K   23339.56119612  .00004104  00000+0  27588-3 0  9991
2 51861  53.2182 113.2646 0001536  94.3778 265.7390 15.08828564 98466
STARLINK-3508           
1 51862U 22022L   23339.37352653  .00001082  00000+0  86077-4 0  9996
2 51862  53.2195 114.1015 0001047 179.7771 180.3222 15.08823708 98572
STARLINK-3555           
1 51863U 22022M   23339.55383294  .00001898  00000+0  13733-3 0  9995
2 51863  53.2169 113.2999 0001247  84.0053 276.1081 15.08836697 98543
STARLINK-3548           
1 51864U 22022N   23339.75622409  .00003722  00000+0  25182-3 0  9991
2 51864  53.2177 112.3108 0001207  99.4727 260.6402 15.08840551 98627
STARLINK-3503           
1 51865U 22022P   23339.54647788  .00001029  00000+0  82691-4 0  9993
2 51865  53.2171 113.3285 0001681 100.2884 259.8298 15.08849811 98542
STARLINK-3553           
1 51866U 22022Q   23339.80869803  .00004856  00000+0  32301-3 0  9990
2 51866  53.2163 112.0052 0001559  76.3189 283.7977 15.08837279 98586
STARLINK-3590           
1 51867U 22022R   23339.54283073 -.00002293  00000+0 -12607-3 0  9993
2 51867  53.2180 113.3500 0001588 101.4324 258.6846 15.08819298 98544
